{"fetched_at":"2026-03-30T06:02:59Z","count":15439,"tles":[{"name":"SAUDICOMSAT 2","line1":"1 28370U 04025E   26087.93834512  .00000381  00000+0  10918-3 0  9992","line2":"2 28370  98.6682  97.9058 0056331 141.6562 218.8657 14.49924768148477","category":"Other"}]}